<?xml version="1.0" encoding="UTF-8"?>
<osm version="0.6" generator="Overpass API 0.7.56.1002 b121d216">
<note>The data included in this document is from www.openstreetmap.org. The data is made available under ODbL.</note>
<meta osm_base="2020-03-13T17:43:02Z" areas="2020-03-06T11:03:01Z"/>

  <node id="1965797379" lat="44.3957483" lon="7.4913901">
    <tag k="delivery" v="yes"/>
    <tag k="description" v="Offre il servizio di consegna gratuita della spesa in Cuneo città e zone limitrofe.  Inviare l'ordine il più possibile via e-mail completo di nome, cognome, indirizzo, telefono e modalità di pagamento preferita."/>
    <tag k="email" v="info@lafattoria1946.com"/>
    <tag k="name" v="La Fattoria"/>
    <tag k="opening_hours" v="Mo 08:50-12:50,16:10-19:30; Tu,We,Fr 08:50-12:20,16:00-19:30; Th 08:20-12:50; Sa 08:20-12:50,15:50-19:30"/>
    <tag k="phone" v="+39 0171 85107"/>
    <tag k="shop" v="convenience"/>
    <tag k="website" v="https://lafattoria1946.com/store/"/>
  </node>
  <node id="2639877631" lat="44.3860349" lon="7.5439369">
    <tag k="addr:housenumber" v="40"/>
    <tag k="addr:street" v="Corso Dante Alighieri"/>
    <tag k="amenity" v="restaurant"/>
    <tag k="cuisine" v="pizza"/>
    <tag k="delivery" v="yes"/>
    <tag k="name" v="Pizzeria Vesuvio"/>
    <tag k="opening_hours" v="Tu,Th-Su 12:00-14:25,18:00-02:10"/>
    <tag k="phone" v="+39 0171 602061"/>
  </node>
  <node id="5397122021" lat="44.3857601" lon="7.5442727">
    <tag k="addr:housenumber" v="27"/>
    <tag k="addr:street" v="Corso Nizza"/>
    <tag k="delivery" v="yes"/>
    <tag k="email" v="info@albero.delpane.it"/>
    <tag k="name" v="L'albero del pane"/>
    <tag k="phone" v="+39 345 424 1416"/>
    <tag k="shop" v="bakery"/>
    <tag k="website" v="https://albero.delpane.it"/>
  </node>
  <node id="5402092336" lat="44.3775707" lon="7.5395501">
    <tag k="addr:city" v="Cuneo"/>
    <tag k="addr:housenumber" v="14"/>
    <tag k="addr:postcode" v="12100"/>
    <tag k="addr:street" v="Via Medaglie d'Oro"/>
    <tag k="amenity" v="restaurant"/>
    <tag k="cuisine" v="pizza"/>
    <tag k="delivery" v="yes"/>
    <tag k="name" v="Pizzeria Medaglie d'Oro"/>
    <tag k="opening_hours" v="Mo 18:15-23:00; We 12:00-14:00,18:15-23:00; Th-Su 18:15-23:00"/>
    <tag k="phone" v="+39 345 4200669"/>
    <tag k="website" v="https://m.facebook.com/Pizza-Medaglie-Doro-1437767796484999/"/>
  </node>
  <node id="5402092382" lat="44.3801459" lon="7.5380339">
    <tag k="addr:city" v="Cuneo"/>
    <tag k="addr:housenumber" v="80"/>
    <tag k="addr:postcode" v="12100"/>
    <tag k="addr:street" v="Corso Nizza"/>
    <tag k="delivery" v="yes"/>
    <tag k="delivery_point:access" v="yes"/>
    <tag k="name" v="L'Angolo alimentare"/>
    <tag k="phone" v="+39 0171 696139"/>
    <tag k="shop" v="convenience"/>
  </node>
  <node id="5420548585" lat="44.3899647" lon="7.5776326">
    <tag k="addr:housenumber" v="81"/>
    <tag k="addr:street" v="Via Savona"/>
    <tag k="delivery" v="yes"/>
    <tag k="email" v="info@albero.delpane.it"/>
    <tag k="name" v="L'Albero del Pane"/>
    <tag k="phone" v="+39 0171 348240"/>
    <tag k="shop" v="bakery"/>
    <tag k="website" v="https://albero.delpane.it"/>
  </node>
  <node id="5839763105" lat="44.3825605" lon="7.4683690">
    <tag k="addr:housenumber" v="37"/>
    <tag k="addr:street" v="Via Roma"/>
    <tag k="amenity" v="pharmacy"/>
    <tag k="contact:facebook" v="https://www.facebook.com/alessiasottileparafarmacia/"/>
    <tag k="delivery" v="yes"/>
    <tag k="dispensing" v="no"/>
    <tag k="name" v="Parafarmacia Alessia Sottile"/>
    <tag k="phone" v="+39 0171 500692"/>
  </node>
  <node id="5843603120" lat="44.3308624" lon="7.4877099">
    <tag k="delivery" v="yes"/>
    <tag k="name" v="Borgomarket"/>
    <tag k="shop" v="convenience"/>
  </node>
  <node id="6018280867" lat="44.3938070" lon="7.5513196">
    <tag k="addr:housenumber" v="6"/>
    <tag k="addr:street" v="Via Santa Maria"/>
    <tag k="amenity" v="restaurant"/>
    <tag k="cuisine" v="japanese;sushi"/>
    <tag k="delivery" v="yes"/>
    <tag k="name" v="Kombu"/>
    <tag k="opening_hours" v="Mo 18:30-22:30; Tu-Sa 12:30-14:30,18:30-23:00; Su 18:30-23:00"/>
    <tag k="phone" v="+39 0171 605615"/>
    <tag k="takeaway" v="yes"/>
    <tag k="website" v="https://shop.kombusushi.com"/>
  </node>
  <node id="6034734222" lat="44.3895430" lon="7.5470124">
    <tag k="addr:housenumber" v="12"/>
    <tag k="addr:street" v="Piazza Tancredi Galimberti"/>
    <tag k="delivery" v="yes"/>
    <tag k="description" v="Per agevolare i clienti hanno attivato un servizio di prenotazione online per i prodotti di gastronomia: potete scaricare l'app dall'Apple Store e da Google Play oppure ordinare tramite il sito. Resta valida la telefonata diretta."/>
    <tag k="email" v="gastronomia@drogheriagiraudo.it"/>
    <tag k="name" v="Drogheria Giraudo"/>
    <tag k="opening_hours" v="Mo 16:00-19:30; Tu-Sa 09:00-13:00,16:00-19:00"/>
    <tag k="phone" v="+39 0171 692620"/>
    <tag k="shop" v="convenience"/>
    <tag k="website" v="http://www.gastronomiagiraudo.it"/>
  </node>
  <node id="6068082705" lat="44.3890578" lon="7.5403061">
    <tag k="addr:housenumber" v="19"/>
    <tag k="addr:street" v="Corso Quattro Novembre"/>
    <tag k="brand" v="Carrefour Market"/>
    <tag k="brand:wikidata" v="Q2689639"/>
    <tag k="brand:wikipedia" v="fr:Carrefour Market"/>
    <tag k="delivery" v="yes"/>
    <tag k="description" v="Spesa online, gratis per OVER 65 fino al 12 aprile 2020"/>
    <tag k="name" v="Carrefour Market"/>
    <tag k="opening_hours" v="24/7"/>
    <tag k="shop" v="supermarket"/>
    <tag k="website" v="https://www.carrefour.it/?cat=spesa"/>
  </node>
  <node id="6069087797" lat="44.3349923" lon="7.4917451">
    <tag k="addr:housenumber" v="79"/>
    <tag k="addr:street" v="Corso Giovanni e Spartaco Barale"/>
    <tag k="amenity" v="restaurant"/>
    <tag k="brewery" v="Birra Forst"/>
    <tag k="changing_table" v="yes"/>
    <tag k="changing_table:location" v="unisex_toilet"/>
    <tag k="cuisine" v="pizza"/>
    <tag k="delivery" v="yes"/>
    <tag k="description" v="Consegna gratuita a Borgo San Dalmazzo"/>
    <tag k="name" v="Italy Pizzeria"/>
    <tag k="opening_hours" v="Mo-Su 12:00-14:00,19:00-24:00"/>
    <tag k="operator" v="Italy"/>
    <tag k="outdoor_seating" v="yes"/>
    <tag k="oven" v="gas_fired"/>
    <tag k="payment:satispay" v="yes"/>
    <tag k="phone" v="+39 0171 261699"/>
    <tag k="ref:vatin" v="IT03517840041"/>
  </node>
  <node id="6129227492" lat="44.3832705" lon="7.5392283">
    <tag k="addr:city" v="Cuneo"/>
    <tag k="addr:housenumber" v="10"/>
    <tag k="addr:postcode" v="12100"/>
    <tag k="addr:street" v="Via Michele Coppino"/>
    <tag k="delivery" v="yes"/>
    <tag k="description" v="Consegna a domicilio su Cuneo."/>
    <tag k="name" v="Alimentari e Pane di Laugero Silvana"/>
    <tag k="phone" v="+39 0171 602533"/>
    <tag k="shop" v="bakery"/>
  </node>
  <node id="6130371486" lat="44.3926051" lon="7.5500258">
    <tag k="addr:city" v="Cuneo"/>
    <tag k="addr:housenumber" v="2b"/>
    <tag k="addr:postcode" v="12100"/>
    <tag k="addr:street" v="Via Dronero"/>
    <tag k="amenity" v="restaurant"/>
    <tag k="cuisine" v="burger"/>
    <tag k="delivery" v="yes"/>
    <tag k="name" v="Bove’s Macellai"/>
    <tag k="opening_hours" v="Mo,Tu 12:15-14:30,19:15-22:30; Th-Su 12:15-14:30,19:15-22:30"/>
    <tag k="phone" v="+39 0171 692624"/>
    <tag k="website" v="http://www.boves1929.it"/>
  </node>
  <node id="6140017111" lat="44.3908068" lon="7.5473757">
    <tag k="addr:housenumber" v="3"/>
    <tag k="addr:street" v="Via Carlo Pascal"/>
    <tag k="amenity" v="restaurant"/>
    <tag k="cuisine" v="barbecue"/>
    <tag k="delivery" v="yes"/>
    <tag k="name" v="Macelleria D'Ale"/>
    <tag k="opening_hours" v="Mo-Sa 09:30-14:30; Mo-Th 16:30-20:00; Fr 16:30-22:30; Sa 16:30-23:00"/>
    <tag k="opening_hours:kitchen" v="Mo-Sa 12:00-14:30; Fr 19:00-22:30; Sa 19:00-23:00"/>
    <tag k="operator" v="Macelleria - Gastronomia D'Ale di Arborino Alessandro &amp; C. S.N.C."/>
    <tag k="phone" v="+39 0171 65759"/>
    <tag k="ref:vatin" v="IT03246830040"/>
    <tag k="shop" v="butcher"/>
  </node>
  <node id="6160271235" lat="44.3945019" lon="7.5017926">
    <tag k="addr:city" v="San Defendente di Cervasca"/>
    <tag k="addr:housenumber" v="76d"/>
    <tag k="addr:postcode" v="12010"/>
    <tag k="addr:street" v="Via Nazionale"/>
    <tag k="delivery" v="yes"/>
    <tag k="email" v="info@nordgel.it"/>
    <tag k="name" v="Nord Gel"/>
    <tag k="opening_hours" v="Mo-Sa 08:30-12:30,15:00-19:30; Su 08:30-12:30"/>
    <tag k="phone" v="+39 0171 612405;+39 0171 612602"/>
    <tag k="shop" v="frozen_food"/>
    <tag k="website" v="https://www.nordgel.it/"/>
  </node>
  <node id="6170776614" lat="44.3840423" lon="7.5411894">
    <tag k="addr:housenumber" v="14"/>
    <tag k="addr:street" v="Piazza Europa"/>
    <tag k="amenity" v="bar"/>
    <tag k="brewery" v="Beck's;Leffe"/>
    <tag k="cuisine" v="ice_cream"/>
    <tag k="delivery" v="yes"/>
    <tag k="name" v="Cuba"/>
    <tag k="outdoor_seating" v="yes"/>
    <tag k="phone" v="+39 0171 693968"/>
  </node>
  <node id="6173030845" lat="44.3838343" lon="7.5409787">
    <tag k="addr:housenumber" v="16"/>
    <tag k="addr:street" v="Piazza Europa"/>
    <tag k="clothes" v="underwear"/>
    <tag k="contact:facebook" v="https://www.facebook.com/bruna.intimomerceria/"/>
    <tag k="delivery" v="yes"/>
    <tag k="name" v="Bruna"/>
    <tag k="shop" v="clothes"/>
  </node>
  <node id="6174999048" lat="44.3993545" lon="7.5326852">
    <tag k="delivery" v="yes"/>
    <tag k="name" v="Mi &amp; Ti"/>
    <tag k="shop" v="convenience"/>
  </node>
  <node id="6201523711" lat="44.3910114" lon="7.5489401">
    <tag k="addr:housenumber" v="4"/>
    <tag k="addr:street" v="Vicolo Cattedrale"/>
    <tag k="amenity" v="pub"/>
    <tag k="contact:facebook" v="https://www.facebook.com/InfernottoYumPub/"/>
    <tag k="contact:instagram" v="https://www.instagram.com/infernotto_yum_pub/"/>
    <tag k="cuisine" v="pizza"/>
    <tag k="delivery" v="yes"/>
    <tag k="name" v="Infernotto"/>
    <tag k="opening_hours" v="Mo-Tu,Th-Sa 11:30-15:00,18:00-24:00; Su 11:00-14:00,18:00-24:00"/>
    <tag k="operator" v="Infernotto S.A.S."/>
    <tag k="outdoor_seating" v="yes"/>
    <tag k="oven" v="no"/>
    <tag k="phone:mobile" v="+39 339 5865036"/>
    <tag k="ref:vatin" v="IT03773800044"/>
    <tag k="website" v="https://infernotto.pub"/>
  </node>
  <node id="6290787051" lat="44.3756062" lon="7.5331994">
    <tag k="addr:housenumber" v="12"/>
    <tag k="addr:street" v="Corso Francia"/>
    <tag k="delivery" v="yes"/>
    <tag k="email" v="cuneo@fattoriebovingrana.com"/>
    <tag k="name" v="Macelleria Fattorie Bovin Grana"/>
    <tag k="phone" v="+39 0171 500447"/>
    <tag k="shop" v="butcher"/>
    <tag k="website" v="http://www.fattoriebovingrana.com"/>
  </node>
  <node id="6298798509" lat="44.3869182" lon="7.5445247">
    <tag k="amenity" v="restaurant"/>
    <tag k="cuisine" v="pizza"/>
    <tag k="delivery" v="yes"/>
    <tag k="name" v="Pizza Flash"/>
    <tag k="phone" v="+39 0171 630775"/>
  </node>
  <node id="6358483961" lat="44.3857052" lon="7.5420549">
    <tag k="amenity" v="cafe"/>
    <tag k="delivery" v="yes"/>
    <tag k="name" v="La coccinella"/>
    <tag k="phone" v="+39 339 2429445"/>
  </node>
  <node id="6360785558" lat="44.3807256" lon="7.5401910">
    <tag k="delivery" v="yes"/>
    <tag k="name" v="Arcobaleno di frutta"/>
    <tag k="phone" v="+39 392 5903163"/>
    <tag k="shop" v="greengrocer"/>
  </node>
  <node id="6418937919" lat="44.3923190" lon="7.5523919">
    <tag k="delivery" v="yes"/>
    <tag k="name" v="Magnolia"/>
    <tag k="shop" v="perfumery"/>
  </node>
  <node id="6420509034" lat="44.3852092" lon="7.5399560">
    <tag k="addr:city" v="Cuneo"/>
    <tag k="addr:housenumber" v="20"/>
    <tag k="addr:postcode" v="12100"/>
    <tag k="addr:street" v="Via Quintino Sella"/>
    <tag k="delivery" v="yes"/>
    <tag k="name" v="Il verdurivendolo"/>
    <tag k="opening_hours" v="Mo,Fr 16:00-19:00; Tu,Th 09:30-13:00,16:00-19:00; Sa 09:30-12:30"/>
    <tag k="phone" v="+39 320 4682017"/>
    <tag k="shop" v="greengrocer"/>
    <tag k="website" v="http://www.ilverdurivendolo.it/home-page/"/>
  </node>
  <node id="6433717643" lat="44.3877362" lon="7.5380134">
    <tag k="delivery" v="yes"/>
    <tag k="name" v="Eco store"/>
    <tag k="phone" v="+39 392 4050480"/>
    <tag k="shop" v="ink"/>
  </node>
  <node id="6466198055" lat="44.3826094" lon="7.5415535">
    <tag k="addr:city" v="Cuneo"/>
    <tag k="addr:housenumber" v="32"/>
    <tag k="addr:postcode" v="12100"/>
    <tag k="addr:street" v="Corso Annibale Santorre di Santarosa"/>
    <tag k="delivery" v="yes"/>
    <tag k="name" v="La bufalina"/>
    <tag k="opening_hours" v="Mo 16:00-19:30; Tu-Fr 09:00-13:00,16:00-19:30; Sa 09:00-13:00"/>
    <tag k="phone" v="+39 320 4682017"/>
    <tag k="shop" v="convenience"/>
    <tag k="website" v="http://labufalinacuneo.altervista.org"/>
  </node>
  <node id="6499353521" lat="44.3887067" lon="7.5430707">
    <tag k="delivery" v="yes"/>
    <tag k="name" v="Gli Aristogatti"/>
    <tag k="shop" v="pet"/>
  </node>
  <node id="6515989776" lat="44.3793590" lon="7.5310743">
    <tag k="amenity" v="fast_food"/>
    <tag k="cuisine" v="pizza;kebab"/>
    <tag k="delivery" v="yes"/>
    <tag k="name" v="Crazy pizza"/>
  </node>
  <node id="6542694961" lat="44.3816563" lon="7.5391260">
    <tag k="delivery" v="yes"/>
    <tag k="name" v="L'orto delle delizie"/>
    <tag k="phone" v="+39 347 2621977"/>
    <tag k="shop" v="greengrocer"/>
  </node>
  <node id="6547627100" lat="44.3808538" lon="7.5407151">
    <tag k="delivery" v="yes"/>
    <tag k="description" v="Vende alimentari freschi e secchi."/>
    <tag k="name" v="La bottega 71"/>
    <tag k="opening_hours" v="Mo-Sa 07:00-13:00,16:00-19:30"/>
    <tag k="phone" v="+39 0171 691004"/>
    <tag k="shop" v="convenience"/>
  </node>
  <node id="6547627107" lat="44.3809534" lon="7.5405130">
    <tag k="addr:housenumber" v="7c"/>
    <tag k="addr:street" v="Corso Vittorio Emanuele Secondo"/>
    <tag k="amenity" v="fast_food"/>
    <tag k="cuisine" v="pizza;hamburger"/>
    <tag k="delivery" v="yes"/>
    <tag k="name" v="Yuppidù Pizza"/>
    <tag k="opening_hours" v="Mo-Su 18:30-23:15"/>
    <tag k="phone" v="+39 0171 631827"/>
    <tag k="website" v="http://yuppidupizza-cuneo.it/"/>
  </node>
  <node id="6611933791" lat="44.3927068" lon="7.5498378">
    <tag k="amenity" v="restaurant"/>
    <tag k="contact:mobile" v="+39 391 3004405"/>
    <tag k="delivery" v="yes"/>
    <tag k="name" v="I 5 sensi"/>
    <tag k="phone" v="+39 0171 325145"/>
  </node>
  <node id="6673724204" lat="44.3479457" lon="7.5078869">
    <tag k="clothes" v="underwear"/>
    <tag k="delivery" v="yes"/>
    <tag k="name" v="Intimania"/>
    <tag k="shop" v="clothes"/>
  </node>
  <node id="6696708899" lat="44.3818954" lon="7.5414661">
    <tag k="addr:housenumber" v="10a"/>
    <tag k="addr:street" v="Via Antonio Stoppani"/>
    <tag k="delivery" v="yes"/>
    <tag k="description" v="Le consegne a domicilio si effettuano tutti i giorni dalle h 15 alle h 16 e dopo le h 18:30; il giovedì dopo le h 11:30. Le ordinazioni devono pervenire entro le h 17:30. Costo: 2€ a consegna (in Cuneo), gratis oltre i 55€"/>
    <tag k="name" v="Supermercato Lingua"/>
    <tag k="opening_hours" v="Mo, Tu, Fr-Su 08:10-12:30, 15:30-19:30; We 08:10-12:30, 15:30-19:00; Th 08:10-12:30"/>
    <tag k="phone" v="+39 0171 67397"/>
    <tag k="shop" v="supermarket"/>
    <tag k="website" v="http://www.supermercatolingua.it"/>
  </node>
  <node id="6696715650" lat="44.3821880" lon="7.5408831">
    <tag k="addr:city" v="Cuneo"/>
    <tag k="addr:housenumber" v="2"/>
    <tag k="addr:postcode" v="12100"/>
    <tag k="addr:street" v="Via Antonio Stoppani"/>
    <tag k="delivery" v="yes"/>
    <tag k="name" v="Bioprofumeria - Bio e Vegan"/>
    <tag k="opening_hours" v="Mo 15:30-19:30; Tu-Sa 09:00-12:30,15:30-19:30"/>
    <tag k="phone" v="+39 335 7067241"/>
    <tag k="shop" v="perfumery"/>
  </node>
  <node id="6741665122" lat="44.3895004" lon="7.5614479">
    <tag k="addr:city" v="Borgo San Giuseppe"/>
    <tag k="addr:housenumber" v="14f"/>
    <tag k="addr:postcode" v="12100"/>
    <tag k="addr:street" v="Via Bisalta"/>
    <tag k="delivery" v="yes"/>
    <tag k="name" v="Agrimacelleria, Macelleria Ghibaudo"/>
    <tag k="opening_hours" v="Tu-Sa 08:15-13:00,16:00-19:30"/>
    <tag k="phone" v="+39 0171 401266"/>
    <tag k="shop" v="butcher"/>
  </node>
  <node id="6741665126" lat="44.3891404" lon="7.5613945">
    <tag k="addr:city" v="Borgo San Giuseppe"/>
    <tag k="addr:housenumber" v="17"/>
    <tag k="addr:postcode" v="12100"/>
    <tag k="addr:street" v="Via Bisalta"/>
    <tag k="delivery" v="yes"/>
    <tag k="name" v="La Bottega Simply"/>
    <tag k="opening_hours" v="Mo-Sa 08:00-12:50,16:00-19:30"/>
    <tag k="phone" v="+39 0171 346333"/>
    <tag k="shop" v="convenience"/>
  </node>
  <node id="6741749290" lat="44.3902972" lon="7.5623854">
    <tag k="addr:housenumber" v="7"/>
    <tag k="addr:street" v="Via Bisalta"/>
    <tag k="delivery" v="yes"/>
    <tag k="name" v="Azienda agricola &quot;Il sogno&quot;"/>
    <tag k="phone" v="+39 0171 401763"/>
    <tag k="shop" v="greengrocer"/>
  </node>
  <node id="6814084330" lat="44.3919955" lon="7.5476990">
    <tag k="addr:housenumber" v="1"/>
    <tag k="addr:street" v="Piazza Foro Boario"/>
    <tag k="delivery" v="yes"/>
    <tag k="name" v="La bottega dei sapori"/>
    <tag k="operator" v="La bottega dei sapori di Melillo Michela"/>
    <tag k="phone" v="+39 345 9925106"/>
    <tag k="ref:vatin" v="IT03766680049"/>
    <tag k="shop" v="deli"/>
  </node>
  <node id="6832293603" lat="44.4131859" lon="7.5505367">
    <tag k="delivery" v="yes"/>
    <tag k="name" v="Clorofilla"/>
    <tag k="phone" v="+39 349 1360179"/>
    <tag k="shop" v="florist"/>
  </node>
  <node id="6854314007" lat="44.3795136" lon="7.5297222">
    <tag k="addr:city" v="Cuneo"/>
    <tag k="addr:housenumber" v="21"/>
    <tag k="addr:postcode" v="12100"/>
    <tag k="addr:street" v="Corso Alcide De Gasperi"/>
    <tag k="delivery" v="yes"/>
    <tag k="name" v="Nutrimind"/>
    <tag k="opening_hours" v="Mo 14:00-19:00; Tu-Sa 10:00-19:00"/>
    <tag k="phone" v="+39 320 6017904"/>
    <tag k="shop" v="nutrition_supplements"/>
  </node>
  <node id="6872671494" lat="44.3874961" lon="7.5408009">
    <tag k="delivery" v="yes"/>
    <tag k="name" v="Bottega Ludica"/>
    <tag k="opening_hours" v="Tu 08:30-13:00; Mo-Sa 15:30-20:00; Sa 10:00-13:00"/>
    <tag k="phone" v="+39 347 9646610"/>
    <tag k="shop" v="toys"/>
  </node>
  <node id="7041920027" lat="44.4324071" lon="7.5068911">
    <tag k="addr:housenumber" v="230"/>
    <tag k="addr:street" v="Via della Battaglia"/>
    <tag k="amenity" v="restaurant"/>
    <tag k="cuisine" v="burger;pizza"/>
    <tag k="delivery" v="yes"/>
    <tag k="name" v="La Pantalera"/>
    <tag k="opening_hours" v="Mo-Sa 19:00-23:30; Su 12:00-15:00,19:00-23:00"/>
    <tag k="phone" v="+39 0171 682941"/>
  </node>
  <node id="7062074241" lat="44.4189429" lon="7.4328942">
    <tag k="addr:city" v="Caraglio"/>
    <tag k="addr:housenumber" v="2"/>
    <tag k="addr:postcode" v="12023"/>
    <tag k="addr:street" v="Via Cesare Battisti"/>
    <tag k="contact:facebook" v="https://www.facebook.com/alimentarerisparmioebonta/"/>
    <tag k="delivery" v="yes"/>
    <tag k="name" v="Risparmio e Bontà di Tallone Patrizia"/>
    <tag k="payment:cash" v="yes"/>
    <tag k="payment:maestro" v="yes"/>
    <tag k="payment:mastercard" v="yes"/>
    <tag k="payment:satispay" v="yes"/>
    <tag k="payment:visa" v="yes"/>
    <tag k="phone" v="+39 0171 619110"/>
    <tag k="ref:vatin" v="IT02477260042"/>
    <tag k="shop" v="convenience"/>
    <tag k="website" v="http://www.alimentarerisparmioebonta.it"/>
  </node>
  <node id="7074400566" lat="44.3939234" lon="7.5203746">
    <tag k="amenity" v="fast_food"/>
    <tag k="cuisine" v="pizza"/>
    <tag k="delivery" v="yes"/>
    <tag k="name" v="Pizza Italia"/>
  </node>
  <node id="7283446098" lat="44.3294908" lon="7.4881627">
    <tag k="addr:city" v="Borgo San Dalmazzo"/>
    <tag k="addr:housenumber" v="91"/>
    <tag k="addr:postcode" v="12011"/>
    <tag k="addr:street" v="Via Roma"/>
    <tag k="amenity" v="restaurant"/>
    <tag k="cuisine" v="pizza"/>
    <tag k="delivery" v="yes"/>
    <tag k="name" v="Pizza al taglio Re Antò"/>
    <tag k="opening_hours" v="Tu-Fr 11:30-14:30,18:00-23:00; Su 17:30-23:00"/>
    <tag k="phone" v="+39 333 3333639"/>
  </node>
  <node id="7283477362" lat="44.3604051" lon="7.4750752">
    <tag k="addr:city" v="Vignolo"/>
    <tag k="addr:housenumber" v="14"/>
    <tag k="addr:postcode" v="12010"/>
    <tag k="addr:street" v="Piazza Grande"/>
    <tag k="contact:mobile" v="+39 348 6921079"/>
    <tag k="delivery" v="yes"/>
    <tag k="description" v="Consegna a domicilio gratuita su Vignolo e dintorni. Disponibili al telefono e tramite WhatsApp"/>
    <tag k="name" v="Bottega della carne"/>
    <tag k="opening_hours" v="Mo-Sa 07:00-18:30"/>
    <tag k="phone" v="+39 0171 48273"/>
    <tag k="shop" v="butcher"/>
  </node>
  <node id="7284193496" lat="44.3931501" lon="7.5471118">
    <tag k="contact:facebook" v="https://www.facebook.com/acquarioandpiccolianimali/"/>
    <tag k="delivery" v="yes"/>
    <tag k="name" v="L'acquario and Piccoli Animali"/>
    <tag k="phone" v="+39 328 322 4280"/>
    <tag k="shop" v="pet"/>
  </node>
  <node id="7284202331" lat="44.3923870" lon="7.5504599">
    <tag k="addr:housenumber" v="42"/>
    <tag k="addr:street" v="Via Roma"/>
    <tag k="delivery" v="yes"/>
    <tag k="description" v="Consegna a domicilio su Cuneo e limitrofi."/>
    <tag k="name" v="Alimenti Naturali"/>
    <tag k="phone" v="+39 0171 500911"/>
    <tag k="shop" v="health_food"/>
  </node>
  <node id="7285142734" lat="44.3911381" lon="7.5618034">
    <tag k="addr:city" v="Borgo San Giuseppe"/>
    <tag k="addr:housenumber" v="6"/>
    <tag k="addr:postcode" v="12100"/>
    <tag k="addr:street" v="Via Savona"/>
    <tag k="delivery" v="yes"/>
    <tag k="name" v="Nord Gel"/>
    <tag k="opening_hours" v="Tu-Sa 08:30-13:00,16:00-19:30"/>
    <tag k="phone" v="+39 370 3093939"/>
    <tag k="shop" v="frozen_food"/>
  </node>
  <node id="7286479531" lat="44.3991770" lon="7.6784918">
    <tag k="addr:city" v="Margarita"/>
    <tag k="addr:housenumber" v="17"/>
    <tag k="addr:postcode" v="12040"/>
    <tag k="addr:street" v="VIa Cuneo"/>
    <tag k="delivery" v="yes"/>
    <tag k="description" v="Alimentari."/>
    <tag k="name" v="Ghiottomania"/>
    <tag k="phone" v="+39 0171 792622"/>
    <tag k="shop" v="convenience"/>
  </node>
  <node id="7287719731" lat="44.5145092" lon="7.4732538">
    <tag k="addr:housenumber" v="2"/>
    <tag k="addr:street" v="Piazza Regina Margherita"/>
    <tag k="delivery" v="yes"/>
    <tag k="email" v="info@otticainvista.com"/>
    <tag k="name" v="Ottica in Vista"/>
    <tag k="phone" v="+39 0171 943461"/>
    <tag k="phone:mobile" v="+39 331 9612090"/>
    <tag k="ref:vatin" v="IT03114430048"/>
    <tag k="shop" v="optician"/>
    <tag k="website" v="http://www.otticainvista.com/"/>
  </node>
  <node id="7289025747" lat="44.6452352" lon="7.6569606">
    <tag k="addr:housenumber" v="10"/>
    <tag k="addr:street" v="Via Cravetta"/>
    <tag k="contact:facebook" v="https://www.facebook.com/pelledoca/"/>
    <tag k="cuisine" v="burger"/>
    <tag k="delivery" v="yes"/>
    <tag k="fixme" v="position estimated"/>
    <tag k="name" v="Pelledoca"/>
    <tag k="phone" v="+39 339 440 7053"/>
    <tag k="shop" v="wine"/>
    <tag k="website" v="http://www.pelledoca.net/"/>
  </node>
  <node id="7289057272" lat="44.4413307" lon="7.5255352">
    <tag k="addr:city" v="Roata Rossi"/>
    <tag k="addr:housenumber" v="144"/>
    <tag k="addr:postcode" v="12100"/>
    <tag k="addr:street" v="Via Antica di Busca"/>
    <tag k="delivery" v="yes"/>
    <tag k="fixme" v="position estimated"/>
    <tag k="name" v="Meinero Panetteria Pasticceria"/>
    <tag k="opening_hours" v="Mo-Sa 07:15-13:00,15:30-19:45"/>
    <tag k="phone" v="+39 0171 689022"/>
    <tag k="shop" v="bakery"/>
    <tag k="website" v="https://www.facebook.com/Meinero-Panetteria-Pasticceria-201659636685892/"/>
  </node>
  <node id="7289113302" lat="44.4926586" lon="7.5451998">
    <tag k="addr:city" v="Tarantasca"/>
    <tag k="addr:housenumber" v="43"/>
    <tag k="addr:postcode" v="12100"/>
    <tag k="addr:street" v="Via Vittorio Veneto"/>
    <tag k="contact:facebook" v="https://www.facebook.com/labottegadelgustotarantasca/"/>
    <tag k="delivery" v="yes"/>
    <tag k="description" v="Consegnano a domicilio fino a Madonna dell'Olmo"/>
    <tag k="fixme" v="position estimated"/>
    <tag k="name" v="La Bottega del Gusto"/>
    <tag k="opening_hours" v="Mo-Sa 08:00-12:30,16:00-19:30; Su 08:00-12:30"/>
    <tag k="phone" v="+39 328 471 8769"/>
    <tag k="shop" v="convenience"/>
  </node>
  <node id="7289155704" lat="44.3841393" lon="7.5406647">
    <tag k="addr:housenumber" v="47a"/>
    <tag k="addr:street" v="Via Venti Settembre"/>
    <tag k="delivery" v="yes"/>
    <tag k="fixme" v="position estimated"/>
    <tag k="name" v="Rigenera Cuneo di Marchetti Marco"/>
    <tag k="phone" v="+39 338 5977575"/>
    <tag k="shop" v="ink"/>
  </node>
  <node id="7289164947" lat="44.5115416" lon="7.4822769">
    <tag k="delivery" v="yes"/>
    <tag k="fixme" v="position estimated"/>
    <tag k="name" v="El Granatin"/>
    <tag k="phone" v="+39 347 4546429"/>
    <tag k="shop" v="convenience"/>
  </node>
  <node id="7289371060" lat="44.3805075" lon="7.5360394">
    <tag k="addr:city" v="Cuneo"/>
    <tag k="addr:housenumber" v="16"/>
    <tag k="addr:postcode" v="12100"/>
    <tag k="addr:street" v="Via Beppino Nasetta"/>
    <tag k="contact:facebook" v="https://www.facebook.com/CrispinoAndrea86/"/>
    <tag k="delivery" v="yes"/>
    <tag k="description" v="Consegna gratuita su Cuneo e limitrofi."/>
    <tag k="name" v="La casa della frutta secca"/>
    <tag k="phone" v="+39 392 6338727"/>
    <tag k="shop" v="convenience"/>
  </node>

</osm>

