<?xml version='1.0' encoding='UTF-8'?>
<osm version="0.6" generator="osmfilter 1.4.4">
	<node id="1970779039" lat="44.3808732" lon="7.5392157">
		<tag k="addr:housenumber" v="61a"/>
		<tag k="addr:street" v="Corso Nizza"/>
		<tag k="delivery" v="yes"/>
		<tag k="email" v="cuneo@prink.it"/>
		<tag k="name" v="Prink"/>
		<tag k="operator" v="Aleki SNC di Sala Alessio Gianelio &#38; C."/>
		<tag k="phone" v="+39 349 6410294"/>
		<tag k="shop" v="printer_ink"/>
	</node>
	<node id="6433717643" lat="44.3877362" lon="7.5380134">
		<tag k="delivery" v="yes"/>
		<tag k="name" v="Eco store"/>
		<tag k="phone" v="+39 392 4050480"/>
		<tag k="shop" v="printer_ink"/>
	</node>
	<node id="7025530252" lat="44.4183491" lon="7.4310147">
		<tag k="addr:housenumber" v="171"/>
		<tag k="addr:street" v="Via Roma"/>
		<tag k="contact:facebook" v="https://www.facebook.com/dalmassoelettrodomestici.it/"/>
		<tag k="delivery" v="yes"/>
		<tag k="email" v="dalmasso_caraglio@yahoo.it"/>
		<tag k="name" v="Dalmasso Elettrodomestici"/>
		<tag k="opening_hours" v="Tu-Sa 08:00-12:30,15:30-19:30; Su 09:00-12:30"/>
		<tag k="phone" v="+39 0171 618461"/>
		<tag k="phone:mobile" v="+39 380 4535104"/>
		<tag k="shop" v="electronics"/>
	</node>
	<node id="7289155704" lat="44.3841393" lon="7.5406647">
		<tag k="addr:housenumber" v="47a"/>
		<tag k="addr:street" v="Via Venti Settembre"/>
		<tag k="delivery" v="yes"/>
		<tag k="fixme" v="position estimated"/>
		<tag k="name" v="Rigenera Cuneo di Marchetti Marco"/>
		<tag k="phone" v="+39 338 5977575"/>
		<tag k="shop" v="printer_ink"/>
	</node>
	<node id="7295079935" lat="44.4170499" lon="7.4319042">
		<tag k="delivery" v="yes"/>
		<tag k="name" v="Control C"/>
		<tag k="phone:mobile" v="+39 328 4882278"/>
		<tag k="shop" v="printer_ink"/>
	</node>
	<node id="7296220326" lat="44.4171958" lon="7.4273174">
		<tag k="delivery" v="yes"/>
		<tag k="fixme" v="adjust position"/>
		<tag k="name" v="Lucky"/>
		<tag k="phone" v="+39 348 7118682"/>
		<tag k="shop" v="electronics"/>
	</node>
	<node id="7315542856" lat="44.6482624" lon="7.6578878">
		<tag k="delivery" v="yes"/>
		<tag k="delivery:description:it" v="Attivazione servizio a domicilio COVID-19"/>
		<tag k="name" v="Prink"/>
		<tag k="phone" v="+39 0172 371525 +39 340 1981138"/>
		<tag k="shop" v="printer_ink"/>
		<tag k="website" v="https://www.prink.it/savigliano-1052"/>
	</node>
</osm>
